satname,norad_id,inclination_deg,eccentricity,mean_motion_rev_per_day,perigee_km,apogee_km,l1,l2
STARLINK-1216,45185,53.1599,0.000131,15.30190115,474.34679141887136,476.14237739398686,1 45185U 20012H   26093.89052589 -.00001991  00000+0 -55120-4 0  9992,2 45185  53.1599 282.1744 0001310  80.4355 279.6794 15.30190115338751
STARLINK-1225,45187,53.156,8.83e-05,15.30185313,474.6537676447733,475.86407736468755,1 45187U 20012K   26093.69149847 -.00001172  00000+0 -27487-4 0  9992,2 45187  53.1560 283.5397 0000883  71.9065 288.2032 15.30185313338763
STARLINK-1230,45189,53.1581,0.0001497,15.3021536,474.1432676723325,476.1951475508913,1 45189U 20012M   26093.89691217  .00001778  00000+0  72125-4 0  9998,2 45189  53.1581 282.6446 0001497  80.8215 279.2955 15.30215360336028
STARLINK-1234,45190,53.0422,0.0007797,15.66772444,362.88596562238126,373.40611939887276,1 45190U 20012N   26094.58198918  .00074633  00000+0  69273-3 0  9996,2 45190  53.0422 198.2464 0007797  12.4728 347.6479 15.66772444339938
STARLINK-1269,45197,53.1578,9.79e-05,15.30186292,474.5850521673574,475.92694651662896,1 45197U 20012V   26093.76311540 -.00002969  00000+0 -88196-4 0  9991,2 45197  53.1578 283.1237 0000979 100.9978 259.1133 15.30186292338759
STARLINK-1154,45198,53.0481,0.0004361,15.50219377,413.1220505528863,419.0479709906813,1 45198U 20012W   26093.73412930  .00105268  00000+0  18156-2 0  9995,2 45198  53.0481 250.1631 0004361 195.5045 164.5830 15.50219377339171
STARLINK-1199,45201,53.1576,0.0001056,15.30202531,474.4837991394543,475.9312255004561,1 45201U 20012Z   26094.18959752  .00001911  00000+0  76630-4 0  9991,2 45201  53.1576 265.3862 0001056  88.8325 271.2797 15.30202531339067
STARLINK-1209,45206,53.0432,0.0010165,15.56010742,392.32693821541943,406.1052971036206,1 45206U 20012AE  26094.25002315  .00200853  00000+0  27660-2 0  9991,2 45206  53.0432 210.1551 0010165 353.0391 189.5056 15.56010742  5918
STARLINK-1231,45212,53.0377,0.0003163,15.23339242,493.60268169219853,497.9511196257554,1 45212U 20012AL  26094.15511763  .00071717  00000+0  29654-2 0  9999,2 45212  53.0377 258.6361 0003163 203.9522 156.1327 15.23339242339103
STARLINK-1271,45217,53.1593,8.53e-05,15.30202676,474.6224891273496,475.7916696272914,1 45217U 20012AR  26094.18751006  .00001038  00000+0  47163-4 0  9999,2 45217  53.1593 265.5226 0000853  78.6671 281.4425 15.30202676339065
STARLINK-1191,45222,53.1613,0.0002365,15.32681832,466.19570005399237,469.43383524008914,1 45222U 20012AW  26093.73332366  .00105822  00000+0  32717-2 0  9992,2 45222  53.1613 242.3141 0002365 330.4227  29.6640 15.32681832339359
STARLINK-1212,45223,53.0457,0.0003983,15.57287575,392.81312852573683,398.2090165803329,1 45223U 20012AX  26094.24587301  .00151732  00000+0  20100-2 0  9995,2 45223  53.0457 226.6180 0003983 263.9554  96.1004 15.57287575339618
STARLINK-1215,45225,53.1547,0.0001576,15.30212478,474.0977301992052,476.25789502814223,1 45225U 20012AZ  26093.67124897  .00006334  00000+0  22571-3 0  9992,2 45225  53.1547 242.2632 0001576  88.6994 271.4187 15.30212478339300
STARLINK-1221,45227,53.0632,0.0003777,15.42941037,434.8604126421387,440.0088954696139,1 45227U 20012BB  26094.50622441  .00021942  00000+0  49896-3 0  9996,2 45227  53.0632 147.1886 0003777  82.6371 277.5063 15.42941037340695
STARLINK-1222,45228,53.0555,0.0001774,15.51222365,411.95125161197575,414.3608023779543,1 45228U 20012BC  26094.60011476  .00036961  00000+0  62570-3 0  9999,2 45228  53.0555 218.4300 0001774 156.6454 203.4635 15.51222365339644
STARLINK-1226,45229,53.1573,0.0001298,15.3731505,453.16597269752856,454.9396091672543,1 45229U 20012BD  26093.78789953  .00026161  00000+0  71318-3 0  9991,2 45229  53.1573 241.5622 0001298  85.3391 274.7761 15.37315050339266
STARLINK-1227,45230,53.1558,7.16e-05,15.37264618,453.7130206454276,454.6914116211783,1 45230U 20012BE  26093.67149507  .00026835  00000+0  73241-3 0  9991,2 45230  53.1558 242.2724 0000716  49.8603 310.2463 15.37264618339366
STARLINK-1246,45235,53.1572,0.0001186,15.30180722,474.45981627455967,476.08544503895155,1 45235U 20012BK  26093.90317672 -.00001280  00000+0 -31116-4 0  9997,2 45235  53.1572 282.1359 0001186  90.5612 269.5525 15.30180722338831
STARLINK-1270,45237,53.0456,0.0002293,15.51355691,411.209764065271,414.3240726022186,1 45237U 20012BM  26093.74503035  .00140387  00000+0  23131-2 0  9997,2 45237  53.0456 227.4968 0002293 290.8067  69.2696 15.51355691339556
STARLINK-1279,45360,53.0412,0.0003598,15.62728037,377.3493081173692,382.212305771247,1 45360U 20019A   26094.07311770  .00223764  00000+0  23849-2 0  9998,2 45360  53.0412 335.0897 0003598 205.8554 154.2280 15.62728037334636
STARLINK-1301,45361,53.0415,0.0001273,15.6849363,362.35161158200117,364.06795847346984,1 45361U 20019B   26094.37071166  .00093495  00000+0  80721-3 0  9993,2 45361  53.0415 337.7319 0001273 277.3748  82.7123 15.68493630334630
STARLINK-1262,45366,53.1568,0.0001685,15.2938511,476.4940643724003,478.8044643434896,1 45366U 20019G   26094.15855828  .00010045  00000+0  35964-3 0  9998,2 45366  53.1568  46.9544 0001685 116.9910 243.1263 15.29385110333659
STARLINK-1273,45367,53.0501,0.0004357,15.48225376,418.95461611157134,424.8801835155682,1 45367U 20019H   26094.26222894  .00105736  00000+0  19557-2 0  9993,2 45367  53.0501  32.8238 0004357 105.0145 255.1345 15.48225376333852
STARLINK-1277,45369,53.0502,0.0006206,15.53580008,402.07310317919837,410.4939259218572,1 45369U 20019K   26094.21061009  .00166451  00000+0  25207-2 0  9999,2 45369  53.0502  29.9581 0006206 111.9624 248.2046 15.53580008333893
STARLINK-1281,45370,53.1596,0.0001216,15.30222969,474.313129711104,475.97984825562526,1 45370U 20019L   26094.27481290  .00007491  00000+0  26459-3 0  9994,2 45370  53.1596  46.4460 0001216  90.4173 269.6967 15.30222969333674
STARLINK-1300,45374,53.1605,0.0001113,15.30196161,474.463752644192,475.9893113664166,1 45374U 20019Q   26094.23164020 -.00002085  00000+0 -58311-4 0  9992,2 45374  53.1605  46.6519 0001113  71.4429 288.6692 15.30196161333664
STARLINK-1302,45375,53.0511,0.0003039,15.5872083,389.3009076661392,393.4154068227135,1 45375U 20019R   26094.20627059  .00183000  00000+0  22873-2 0  9993,2 45375  53.0511  28.2283 0003039  85.9405 274.1955 15.58720830333913
STARLINK-1304,45376,53.0489,0.0003702,15.52796498,406.0530738357593,411.07794837498204,1 45376U 20019S   26094.04400005  .00164300  00000+0  25615-2 0  9995,2 45376  53.0489  27.7648 0003702 101.6994 258.4431 15.52796498333903
STARLINK-1305,45377,53.0437,0.0005165,15.58210868,389.337856406667,396.33227054823965,1 45377U 20019T   26094.02568278  .00184155  00000+0  23453-2 0  9999,2 45377  53.0437   9.6685 0005165 171.0378 189.0727 15.58210868334163
STARLINK-1319,45379,53.0451,0.0002856,15.68594509,360.9955041293597,364.8459963162877,1 45379U 20019V   26094.25025378  .00094009  00000+0  80814-3 0  9998,2 45379  53.0451   3.9297 0002856 137.1791 222.9448 15.68594509334269
STARLINK-1266,45383,53.0497,0.0005184,15.49615382,414.32731632966716,421.37339602055,1 45383U 20019Z   26093.91668981  .00124604  00000+0  21882-2 0  9992,2 45383  53.0497  12.3834 0005184 113.8954 269.0767 15.49615382  5896
STARLINK-1267,45384,53.0502,4.43e-05,15.54617443,402.96448728601626,403.56531949465716,1 45384U 20019AA  26094.12071230  .00192743  00000+0  28018-2 0  9999,2 45384  53.0502   4.6034 0000443  95.1007 265.0054 15.54617443334238
STARLINK-1272,45386,53.0443,0.0004014,15.61170102,381.5615694947519,386.9904346528174,1 45386U 20019AC  26094.12624125  .00204648  00000+0  23227-2 0  9993,2 45386  53.0443 346.1364 0004014 193.6387 166.4518 15.61170102334498
STARLINK-1274,45387,53.0269,0.0002822,15.51414872,410.67787354687334,414.5105622462552,1 45387U 20019AD  26094.07638242  .00144705  00000+0  23775-2 0  9998,2 45387  53.0269 341.2091 0002822 271.4825  88.5860 15.51414872334550
STARLINK-1280,45388,53.0435,0.0001796,15.69023422,360.4817169316266,362.9026635767659,1 45388U 20019AE  26094.09692402  .00108901  00000+0  91747-3 0  9992,2 45388  53.0435 357.3882 0001796 159.6750 200.4338 15.69023422334321
STARLINK-1283,45389,53.0442,8.73e-05,15.64318253,374.61059956717963,375.789732236346,1 45389U 20019AF  26094.07848855  .00125048  00000+0  12701-2 0  9999,2 45389  53.0442 346.1687 0000873 117.3531 242.7572 15.64318253334493
STARLINK-1284,45390,53.0482,0.0004816,15.56507434,394.5109627784368,401.0375204863776,1 45390U 20019AG  26094.08182505  .00153182  00000+0  20882-2 0  9994,2 45390  53.0482   8.4022 0004816 124.7375 235.4089 15.56507434334178
STARLINK-1297,45395,53.0468,0.0005951,15.5947768,385.1404969886571,393.19494306643355,1 45395U 20019AM  26094.24282848  .00149253  00000+0  18207-2 0  9990,2 45395  53.0468   6.8516 0005951 127.3649 232.7906 15.59477680333394
STARLINK-1307,45397,53.0557,0.0001913,15.52558649,407.96020447481624,410.55706204410217,1 45397U 20019AP  26094.26526786  .00045063  00000+0  72491-3 0  9996,2 45397  53.0557   7.8562 0001913  91.0714 269.0515 15.52558649334029
STARLINK-1255,45399,53.0407,0.0001241,15.56842802,395.9603462052455,397.6418858456427,1 45399U 20019AR  26094.08923856  .00187605  00000+0  25142-2 0  9996,2 45399  53.0407 340.0617 0001241 158.0537 202.0527 15.56842802334389
STARLINK-1260,45404,53.1608,0.0001294,15.31965733,469.06183128943485,470.8341156805727,1 45404U 20019AW  26094.16282453  .00074857  00000+0  23801-2 0  9997,2 45404  53.1608  10.8399 0001294 153.2591 206.8477 15.31965733333875
STARLINK-1263,45405,53.1628,9.69e-05,15.30228314,474.46644859883327,475.7946118461905,1 45405U 20019AX  26094.15888534  .00005219  00000+0  18804-3 0  9993,2 45405  53.1628  10.9678 0000969  87.7388 272.3724 15.30228314333871
STARLINK-1265,45406,53.1615,0.0001341,15.31984756,468.9729632984354,470.809604484175,1 45406U 20019AY  26094.16587024  .00079276  00000+0  25169-2 0  9990,2 45406  53.1615  10.9291 0001341 145.7231 214.3858 15.31984756333870
